{"type": "FeatureCollection", "features": [ {"type": "Feature", "properties": {"norad_id": 34327, "name": "COSMOS 2251 DEB", "group": "cosmos-2251-debris", "lat": 73.23626521724704, "lon": -118.91776704690291, "alt_km": 596.9793603646694, "timestamp": "2025-12-14T07:33:19.873103+00:00", "meta": {"OBJECT_NAME": "COSMOS 2251 DEB", "OBJECT_ID": "1993-036NZ", "EPOCH": "2025-12-13T15:21:54.486144", "MEAN_MOTION": 14.89211661, "ECCENTRICITY": 0.00328534, "INCLINATION": 73.994, "RA_OF_ASC_NODE": 170.0795, "ARG_OF_PERICENTER": 346.2381, "MEAN_ANOMALY": 83.2477, "EPHEMERIS_TYPE": 0, "CLASSIFICATION_TYPE": "U", "NORAD_CAT_ID": 34327, "ELEMENT_SET_NO": 999, "REV_AT_EPOCH": 89521, "BSTAR": 0.0014340396, "MEAN_MOTION_DOT": 0.0001369, "MEAN_MOTION_DDOT": 0}, "tle": {"line1": "1 34327U 93036NZ  25347.64021396  .00013690  00000+0  14340-2 0  9994", "line2": "2 34327  73.9940 170.0795 0032853 346.2381  83.2477 14.89211661895215"}}, "geometry": {"type": "Point", "coordinates": [-118.91776704690291, 73.23626521724704]}}, {"type": "Feature", "properties": {"norad_id": 34340, "name": "COSMOS 2251 DEB", "group": "cosmos-2251-debris", "lat": -23.83611364653816, "lon": -61.887644527822545, "alt_km": 919.996211215087, "timestamp": "2025-12-14T07:33:19.873117+00:00", "meta": {"OBJECT_NAME": "COSMOS 2251 DEB", "OBJECT_ID": "1993-036PN", "EPOCH": "2025-12-13T15:06:46.893024", "MEAN_MOTION": 13.79575572, "ECCENTRICITY": 0.02827232, "INCLINATION": 74.0792, "RA_OF_ASC_NODE": 306.5006, "ARG_OF_PERICENTER": 54.0696, "MEAN_ANOMALY": 123.0829, "EPHEMERIS_TYPE": 0, "CLASSIFICATION_TYPE": "U", "NORAD_CAT_ID": 34340, "ELEMENT_SET_NO": 999, "REV_AT_EPOCH": 84280, "BSTAR": 0.0019734044, "MEAN_MOTION_DOT": 2.725e-05, "MEAN_MOTION_DDOT": 0}, "tle": {"line1": "1 34340U 93036PN  25347.62970941  .00002725  00000+0  19734-2 0  9995", "line2": "2 34340  74.0792 306.5006 0282723  54.0696 123.0829 13.79575572842807"}}, "geometry": {"type": "Point", "coordinates": [-61.887644527822545, -23.83611364653816]}}, {"type": "Feature", "properties": {"norad_id": 34343, "name": "COSMOS 2251 DEB", "group": "cosmos-2251-debris", "lat": -19.856284251795955, "lon": -87.55990592765637, "alt_km": 683.1296124531264, "timestamp": "2025-12-14T07:33:19.873127+00:00", "meta": {"OBJECT_NAME": "COSMOS 2251 DEB", "OBJECT_ID": "1993-036PR", "EPOCH": "2025-12-13T16:28:55.911072", "MEAN_MOTION": 14.69466321, "ECCENTRICITY": 0.00235082, "INCLINATION": 74.0197, "RA_OF_ASC_NODE": 87.7174, "ARG_OF_PERICENTER": 2.1063, "MEAN_ANOMALY": 117.4642, "EPHEMERIS_TYPE": 0, "CLASSIFICATION_TYPE": "U", "NORAD_CAT_ID": 34343, "ELEMENT_SET_NO": 999, "REV_AT_EPOCH": 88744, "BSTAR": 0.0016916292, "MEAN_MOTION_DOT": 0.00010048, "MEAN_MOTION_DDOT": 0}, "tle": {"line1": "1 34343U 93036PR  25347.68675823  .00010048  00000+0  16916-2 0  9991", "line2": "2 34343  74.0197  87.7174 0023508   2.1063 117.4642 14.69466321887449"}}, "geometry": {"type": "Point", "coordinates": [-87.55990592765637, -19.856284251795955]}}, {"type": "Feature", "properties": {"norad_id": 34344, "name": "COSMOS 2251 DEB", "group": "cosmos-2251-debris", "lat": 2.7238524600229024, "lon": 108.31947561450144, "alt_km": 802.5525731173993, "timestamp": "2025-12-14T07:33:19.873138+00:00", "meta": {"OBJECT_NAME": "COSMOS 2251 DEB", "OBJECT_ID": "1993-036PS", "EPOCH": "2025-12-13T09:46:43.485600", "MEAN_MOTION": 14.16417589, "ECCENTRICITY": 0.01559681, "INCLINATION": 73.9776, "RA_OF_ASC_NODE": 109.1553, "ARG_OF_PERICENTER": 293.1819, "MEAN_ANOMALY": 123.1275, "EPHEMERIS_TYPE": 0, "CLASSIFICATION_TYPE": "U", "NORAD_CAT_ID": 34344, "ELEMENT_SET_NO": 999, "REV_AT_EPOCH": 86106, "BSTAR": 0.0027387096, "MEAN_MOTION_DOT": 6.108e-05, "MEAN_MOTION_DDOT": 0}, "tle": {"line1": "1 34344U 93036PS  25347.40744775  .00006108  00000+0  27387-2 0  9991", "line2": "2 34344  73.9776 109.1553 0155968 293.1819 123.1275 14.16417589861068"}}, "geometry": {"type": "Point", "coordinates": [108.31947561450144, 2.7238524600229024]}}, {"type": "Feature", "properties": {"norad_id": 34346, "name": "COSMOS 2251 DEB", "group": "cosmos-2251-debris", "lat": 15.875534281507212, "lon": -45.80403899340921, "alt_km": 947.2752277809386, "timestamp": "2025-12-14T07:33:19.873148+00:00", "meta": {"OBJECT_NAME": "COSMOS 2251 DEB", "OBJECT_ID": "1993-036PU", "EPOCH": "2025-12-13T08:09:49.367808", "MEAN_MOTION": 13.9969546, "ECCENTRICITY": 0.020621, "INCLINATION": 73.995, "RA_OF_ASC_NODE": 311.2044, "ARG_OF_PERICENTER": 129.9917, "MEAN_ANOMALY": 19.5449, "EPHEMERIS_TYPE": 0, "CLASSIFICATION_TYPE": "U", "NORAD_CAT_ID": 34346, "ELEMENT_SET_NO": 999, "REV_AT_EPOCH": 85418, "BSTAR": 0.0014262314, "MEAN_MOTION_DOT": 2.484e-05, "MEAN_MOTION_DDOT": 0}, "tle": {"line1": "1 34346U 93036PU  25347.34015472  .00002484  00000+0  14262-2 0  9992", "line2": "2 34346  73.9950 311.2044 0206210 129.9917  19.5449 13.99695460854189"}}, "geometry": {"type": "Point", "coordinates": [-45.80403899340921, 15.875534281507212]}}, {"type": "Feature", "properties": {"norad_id": 34383, "name": "COSMOS 2251 DEB", "group": "cosmos-2251-debris", "lat": 59.39735291324219, "lon": 85.47758183437173, "alt_km": 531.9442430472209, "timestamp": "2025-12-14T07:33:19.873160+00:00", "meta": {"OBJECT_NAME": "COSMOS 2251 DEB", "OBJECT_ID": "1993-036PY", "EPOCH": "2025-12-13T07:43:48.517248", "MEAN_MOTION": 15.09096636, "ECCENTRICITY": 0.00023345, "INCLINATION": 74.0219, "RA_OF_ASC_NODE": 296.5009, "ARG_OF_PERICENTER": 45.1672, "MEAN_ANOMALY": 80.0273, "EPHEMERIS_TYPE": 0, "CLASSIFICATION_TYPE": "U", "NORAD_CAT_ID": 34383, "ELEMENT_SET_NO": 999, "REV_AT_EPOCH": 89122, "BSTAR": 0.0048451422, "MEAN_MOTION_DOT": 0.00077636, "MEAN_MOTION_DDOT": 0}, "tle": {"line1": "1 34383U 93036PY  25347.32208932  .00077636  00000+0  48451-2 0  9994", "line2": "2 34383  74.0219 296.5009 0002334  45.1672  80.0273 15.09096636891221"}}, "geometry": {"type": "Point", "coordinates": [85.47758183437173, 59.39735291324219]}}, {"type": "Feature", "properties": {"norad_id": 34387, "name": "COSMOS 2251 DEB", "group": "cosmos-2251-debris", "lat": 41.13009223635637, "lon": -136.5589079319504, "alt_km": 745.8304022378416, "timestamp": "2025-12-14T07:33:19.873262+00:00", "meta": {"OBJECT_NAME": "COSMOS 2251 DEB", "OBJECT_ID": "1993-036QC", "EPOCH": "2025-12-13T14:49:44.416416", "MEAN_MOTION": 14.43822943, "ECCENTRICITY": 0.00387815, "INCLINATION": 74.0401, "RA_OF_ASC_NODE": 210.2638, "ARG_OF_PERICENTER": 307.0598, "MEAN_ANOMALY": 74.6953, "EPHEMERIS_TYPE": 0, "CLASSIFICATION_TYPE": "U", "NORAD_CAT_ID": 34387, "ELEMENT_SET_NO": 999, "REV_AT_EPOCH": 88194, "BSTAR": 0.00040829695, "MEAN_MOTION_DOT": 1.376e-05, "MEAN_MOTION_DDOT": 0}, "tle": {"line1": "1 34387U 93036QC  25347.61787519  .00001376  00000+0  40830-3 0  9995", "line2": "2 34387  74.0401 210.2638 0038781 307.0598  74.6953 14.43822943881948"}}, "geometry": {"type": "Point", "coordinates": [-136.5589079319504, 41.13009223635637]}}, {"type": "Feature", "properties": {"norad_id": 34388, "name": "COSMOS 2251 DEB", "group": "cosmos-2251-debris", "lat": 53.57371544276943, "lon": -117.03026277204694, "alt_km": 730.7973758307726, "timestamp": "2025-12-14T07:33:19.873275+00:00", "meta": {"OBJECT_NAME": "COSMOS 2251 DEB", "OBJECT_ID": "1993-036QD", "EPOCH": "2025-12-13T10:33:41.728320", "MEAN_MOTION": 14.49373188, "ECCENTRICITY": 0.00140275, "INCLINATION": 74.0391, "RA_OF_ASC_NODE": 221.7913, "ARG_OF_PERICENTER": 269.9665, "MEAN_ANOMALY": 264.4665, "EPHEMERIS_TYPE": 0, "CLASSIFICATION_TYPE": "U", "NORAD_CAT_ID": 34388, "ELEMENT_SET_NO": 999, "REV_AT_EPOCH": 88165, "BSTAR": 0.0011023742, "MEAN_MOTION_DOT": 4.194e-05, "MEAN_MOTION_DDOT": 0}, "tle": {"line1": "1 34388U 93036QD  25347.44006630  .00004194  00000+0  11024-2 0  9998", "line2": "2 34388  74.0391 221.7913 0014027 269.9665 264.4665 14.49373188881653"}}, "geometry": {"type": "Point", "coordinates": [-117.03026277204694, 53.57371544276943]}}, {"type": "Feature", "properties": {"norad_id": 34389, "name": "COSMOS 2251 DEB", "group": "cosmos-2251-debris", "lat": 33.43116792147661, "lon": -102.2007700894181, "alt_km": 734.35318111979, "timestamp": "2025-12-14T07:33:19.873287+00:00", "meta": {"OBJECT_NAME": "COSMOS 2251 DEB", "OBJECT_ID": "1993-036QE", "EPOCH": "2025-12-13T10:17:53.279232", "MEAN_MOTION": 14.41537166, "ECCENTRICITY": 0.00289543, "INCLINATION": 74.0193, "RA_OF_ASC_NODE": 248.536, "ARG_OF_PERICENTER": 0.3972, "MEAN_ANOMALY": 119.8154, "EPHEMERIS_TYPE": 0, "CLASSIFICATION_TYPE": "U", "NORAD_CAT_ID": 34389, "ELEMENT_SET_NO": 999, "REV_AT_EPOCH": 88022, "BSTAR": 0.00062352707, "MEAN_MOTION_DOT": 2.01e-05, "MEAN_MOTION_DDOT": 0}, "tle": {"line1": "1 34389U 93036QE  25347.42908888  .00002010  00000+0  62353-3 0  9990", "line2": "2 34389  74.0193 248.5360 0028954   0.3972 119.8154 14.41537166880227"}}, "geometry": {"type": "Point", "coordinates": [-102.2007700894181, 33.43116792147661]}}, {"type": "Feature", "properties": {"norad_id": 34396, "name": "COSMOS 2251 DEB", "group": "cosmos-2251-debris", "lat": 32.82910631154989, "lon": -69.69096637125297, "alt_km": 640.4000101702995, "timestamp": "2025-12-14T07:33:19.873300+00:00", "meta": {"OBJECT_NAME": "COSMOS 2251 DEB", "OBJECT_ID": "1993-036QM", "EPOCH": "2025-12-13T11:40:33.741696", "MEAN_MOTION": 14.74460699, "ECCENTRICITY": 0.0005937, "INCLINATION": 74.0291, "RA_OF_ASC_NODE": 122.5741, "ARG_OF_PERICENTER": 163.021, "MEAN_ANOMALY": 267.6211, "EPHEMERIS_TYPE": 0, "CLASSIFICATION_TYPE": "U", "NORAD_CAT_ID": 34396, "ELEMENT_SET_NO": 999, "REV_AT_EPOCH": 88357, "BSTAR": 0.0036879897, "MEAN_MOTION_DOT": 0.00024569, "MEAN_MOTION_DDOT": 0}, "tle": {"line1": "1 34396U 93036QM  25347.48650164  .00024569  00000+0  36880-2 0  9993", "line2": "2 34396  74.0291 122.5741 0005937 163.0210 267.6211 14.74460699883575"}}, "geometry": {"type": "Point", "coordinates": [-69.69096637125297, 32.82910631154989]}}]}